NORAD_CAT_ID,OBJECT_NAME,OBJECT_TYPE,EPOCH,MEAN_MOTION,ECCENTRICITY,INCLINATION,RA_OF_ASC_NODE,ARG_OF_PERICENTER,MEAN_ANOMALY,BSTAR,MEAN_MOTION_DOT,MEAN_MOTION_DDOT,TLE_LINE0,TLE_LINE1,TLE_LINE2,SEMIMAJOR_AXIS,PERIOD,APOGEE,PERIGEE,DECAYED
51995.0,STARLINK-3636,PAYLOAD,2023-02-13 03:48:57,15.08828113,5.94e-05,53.2187,9.3818,90.1496,269.9564,0.0010898,0.00017093,0.0,0 STARLINK-3636,1 51995U 22025AR  23044.15899603  .00017093  00000-0  10898-2 0  9992,2 51995  53.2187   9.3818 0000594  90.1496 269.9564 15.08828113 53267,6917.917,95.438,540.193,539.371,0.0
51995.0,STARLINK-3636,PAYLOAD,2023-02-14 03:39:44,15.08857587,0.000143,53.218,4.9201,76.1532,283.9619,0.00094722,0.00014826,0.0,0 STARLINK-3636,1 51995U 22025AR  23045.15259606  .00014826  00000-0  94722-3 0  9996,2 51995  53.2180   4.9201 0001430  76.1532 283.9619 15.08857587 51893,6917.827,95.436,540.681,538.702,0.0
51995.0,STARLINK-3636,PAYLOAD,2023-02-14 14:47:26,15.08852768,0.0001071,53.2184,2.839,65.505,294.6054,0.00065108,0.00010093,0.0,0 STARLINK-3636,1 51995U 22025AR  23045.61627467  .00010093  00000-0  65108-3 0  9999,2 51995  53.2184   2.8390 0001071  65.5050 294.6054 15.08852768 53486,6917.841,95.437,540.447,538.965,0.0
51995.0,STARLINK-3636,PAYLOAD,2023-02-15 03:30:31,15.08849231,0.0001118,53.2192,0.4587,97.4047,262.7072,0.0004732,7.253e-05,0.0,0 STARLINK-3636,1 51995U 22025AR  23046.14619728  .00007253  00000-0  47320-3 0  9999,2 51995  53.2192   0.4587 0001118  97.4047 262.7072 15.08849231 53565,6917.852,95.437,540.491,538.944,0.0
51995.0,STARLINK-3636,PAYLOAD,2023-02-15 20:59:45,15.08847267,0.0001164,53.2195,357.1881,92.3397,267.7728,0.00041102,6.261e-05,0.0,0 STARLINK-3636,1 51995U 22025AR  23046.87483777  .00006261  00000-0  41102-3 0  9992,2 51995  53.2195 357.1881 0001164  92.3397 267.7728 15.08847267 52154,6917.858,95.437,540.528,538.918,0.0
51995.0,STARLINK-3636,PAYLOAD,2023-02-16 06:32:03,15.08877848,0.0001428,53.2173,355.4027,102.4267,257.6885,0.0010662,0.00016739,0.0,0 STARLINK-3636,1 51995U 22025AR  23047.27226722  .00016739  00000-0  10662-2 0  9999,2 51995  53.2173 355.4027 0001428 102.4267 257.6885 15.08877848 53730,6917.765,95.435,540.618,538.642,0.0
51995.0,STARLINK-3636,PAYLOAD,2023-02-16 12:53:37,15.08835769,0.0001348,53.2186,354.2144,70.7172,289.3966,-0.00012233,-2.234e-05,0.0,0 STARLINK-3636,1 51995U 22025AR  23047.53723823 -.00002234  00000-0 -12233-3 0  9996,2 51995  53.2186 354.2144 0001348  70.7172 289.3966 15.08835769 52258,6917.893,95.438,540.691,538.826,0.0
51995.0,STARLINK-3636,PAYLOAD,2023-02-17 12:44:25,15.08821807,0.0001274,53.2178,349.749,59.3772,300.7346,-0.00013335,-2.408e-05,0.0,0 STARLINK-3636,1 51995U 22025AR  23048.53084871 -.00002408  00000-0 -13335-3 0  9997,2 51995  53.2178 349.7490 0001274  59.3772 300.7346 15.08821807 52404,6917.936,95.439,540.682,538.92,0.0
51995.0,STARLINK-3636,PAYLOAD,2023-02-18 12:35:13,15.08840628,6.69e-05,53.2174,345.2943,63.6083,296.4978,0.00082539,0.00012873,0.0,0 STARLINK-3636,1 51995U 22025AR  23049.52446091  .00012873  00000-0  82539-3 0  9990,2 51995  53.2174 345.2943 0000669  63.6083 296.4978 15.08840628 52554,6917.878,95.438,540.206,539.281,0.0
51995.0,STARLINK-3636,PAYLOAD,2023-02-19 01:18:17,15.08881039,5.56e-05,53.2182,342.9169,81.6644,278.4411,0.0017535,0.00027761,0.0,0 STARLINK-3636,1 51995U 22025AR  23050.05437182  .00027761  00000-0  17535-2 0  9996,2 51995  53.2182 342.9169 0000556  81.6644 278.4411 15.08881039 54156,6917.755,95.435,540.005,539.235,0.0
51995.0,STARLINK-3636,PAYLOAD,2023-02-19 12:25:58,15.08871449,0.0001435,53.2176,340.8327,259.5994,100.4836,5.3819e-05,5.69e-06,0.0,0 STARLINK-3636,1 51995U 22025AR  23050.51803669  .00000569  00000-0  53819-4 0  9998,2 51995  53.2176 340.8327 0001435 259.5994 100.4836 15.08871449 52701,6917.784,95.436,540.642,538.657,0.0
51995.0,STARLINK-3636,PAYLOAD,2023-02-20 02:44:27,15.0885993,8.78e-05,53.217,338.1578,83.8107,276.2985,0.0015029,0.00023725,0.0,0 STARLINK-3636,1 51995U 22025AR  23051.11420337  .00023725  00000-0  15029-2 0  9990,2 51995  53.2170 338.1578 0000878  83.8107 276.2985 15.08859930 54314,6917.819,95.436,540.292,539.077,0.0
51995.0,STARLINK-3636,PAYLOAD,2023-02-20 12:16:46,15.08854684,0.0001174,53.2172,336.3728,71.1506,288.9614,0.0013139,0.00020693,0.0,0 STARLINK-3636,1 51995U 22025AR  23051.51164602  .00020693  00000-0  13139-2 0  9995,2 51995  53.2172 336.3728 0001174  71.1506 288.9614 15.08854684 52853,6917.836,95.437,540.513,538.888,0.0
51995.0,STARLINK-3636,PAYLOAD,2023-02-21 00:59:51,15.08849797,9.94e-05,53.2171,333.994,69.3431,290.7667,0.0016715,0.00026421,0.0,0 STARLINK-3636,1 51995U 22025AR  23052.04156599  .00026421  00000-0  16715-2 0  9998,2 51995  53.2171 333.9940 0000994  69.3431 290.7667 15.08849797 54452,6917.85,95.437,540.403,539.028,0.0
51995.0,STARLINK-3636,PAYLOAD,2023-02-21 04:10:37,15.08860044,0.0001025,53.217,333.3992,70.2518,289.8584,0.0022801,0.00036206,0.0,0 STARLINK-3636,1 51995U 22025AR  23052.17404500  .00036206  00000-0  22801-2 0  9995,2 51995  53.2170 333.3992 0001025  70.2518 289.8584 15.08860044 52953,6917.819,95.436,540.393,538.975,0.0
51995.0,STARLINK-3636,PAYLOAD,2023-02-21 18:29:05,15.08865141,8.05e-05,53.2174,330.7236,71.6145,288.4935,0.0016642,0.00026315,0.0,0 STARLINK-3636,1 51995U 22025AR  23052.77020319  .00026315  00000-0  16642-2 0  9999,2 51995  53.2174 330.7236 0000805  71.6145 288.4935 15.08865141 54562,6917.804,95.436,540.225,539.112,0.0
51995.0,STARLINK-3636,PAYLOAD,2023-02-21 21:39:51,15.08865659,0.0001077,53.2171,330.1288,52.8201,307.289,0.0014665,0.00023145,0.0,0 STARLINK-3636,1 51995U 22025AR  23052.90268308  .00023145  00000-0  14665-2 0  9997,2 51995  53.2171 330.1288 0001077  52.8201 307.2890 15.08865659 53064,6917.802,95.436,540.412,538.922,0.0
51995.0,STARLINK-3636,PAYLOAD,2023-02-22 00:50:37,15.08866334,9.97e-05,53.2174,329.5346,77.371,282.7393,0.00099795,0.00015641,0.0,0 STARLINK-3636,1 51995U 22025AR  23053.03515999  .00015641  00000-0  99795-3 0  9993,2 51995  53.2174 329.5346 0000997  77.3710 282.7393 15.08866334 54608,6917.8,95.436,540.355,538.975,0.0
51995.0,STARLINK-3636,PAYLOAD,2023-02-22 13:33:42,15.08837295,0.0001256,53.2174,327.152,107.6108,252.5021,-0.00025012,-4.266e-05,0.0,0 STARLINK-3636,1 51995U 22025AR  23053.56508065 -.00004266  00000-0 -25012-3 0  9991,2 51995  53.2174 327.1520 0001256 107.6108 252.5021 15.08837295 53160,6917.889,95.438,540.623,538.885,0.0
51995.0,STARLINK-3636,PAYLOAD,2023-02-22 21:30:39,15.08816129,0.0001083,53.2177,325.6709,51.5644,308.5445,-0.00058707,-9.613e-05,0.0,0 STARLINK-3636,1 51995U 22025AR  23053.89629069 -.00009613  00000-0 -58707-3 0  9993,2 51995  53.2177 325.6709 0001083  51.5644 308.5445 15.08816129 53216,6917.953,95.439,540.568,539.069,0.0
51995.0,STARLINK-3636,PAYLOAD,2023-02-23 00:41:25,15.08826003,0.0001337,53.2173,325.0729,82.8651,277.2493,-0.00020904,-3.612e-05,0.0,0 STARLINK-3636,1 51995U 22025AR  23054.02877220 -.00003612  00000-0 -20904-3 0  9994,2 51995  53.2173 325.0729 0001337  82.8651 277.2493 15.08826003 54752,6917.923,95.438,540.713,538.863,0.0
51995.0,STARLINK-3636,PAYLOAD,2023-02-23 03:52:12,15.08829459,0.0001339,53.2167,324.4771,81.9606,278.1538,-8.1267e-05,-1.581e-05,0.0,0 STARLINK-3636,1 51995U 22025AR  23054.16125254 -.00001581  00000-0 -81267-4 0  9995,2 51995  53.2167 324.4771 0001339  81.9606 278.1538 15.08829459 53259,6917.913,95.438,540.704,538.851,0.0
51995.0,STARLINK-3636,PAYLOAD,2023-02-24 02:07:35,15.08874982,0.0001425,53.2168,320.3156,85.0168,275.0987,0.0017736,0.00028079,0.0,0 STARLINK-3636,1 51995U 22025AR  23055.08860860  .00028079  00000-0  17736-2 0  9993,2 51995  53.2168 320.3156 0001425  85.0168 275.0987 15.08874982 54915,6917.773,95.435,540.624,538.653,0.0
51995.0,STARLINK-3636,PAYLOAD,2023-02-24 03:42:58,15.08881661,0.0001418,53.2166,320.0188,84.4013,275.7141,0.0019043,0.00030184,0.0,0 STARLINK-3636,1 51995U 22025AR  23055.15484637  .00030184  00000-0  19043-2 0  9998,2 51995  53.2166 320.0188 0001418  84.4013 275.7141 15.08881661 53403,6917.753,95.435,540.599,538.637,0.0
51995.0,STARLINK-3636,PAYLOAD,2023-02-24 18:01:27,15.08849935,0.0001594,53.2169,317.3423,104.8822,255.2347,0.00078716,0.00012265,0.0,0 STARLINK-3636,1 51995U 22025AR  23055.75101019  .00012265  00000-0  78716-3 0  9997,2 51995  53.2169 317.3423 0001594 104.8822 255.2347 15.08849935 55015,6917.85,95.437,540.818,538.612,0.0
51995.0,STARLINK-3636,PAYLOAD,2023-02-25 03:33:46,15.08848667,0.0001495,53.2165,315.5581,96.9276,263.1886,0.001072,0.00016818,0.0,0 STARLINK-3636,1 51995U 22025AR  23056.14844975  .00016818  00000-0  10720-2 0  9994,2 51995  53.2165 315.5581 0001495  96.9276 263.1886 15.08848667 55073,6917.854,95.437,540.753,538.685,0.0
51995.0,STARLINK-3636,PAYLOAD,2023-02-25 21:03:00,15.08844203,0.0001748,53.2167,312.2859,101.1784,258.9405,0.0010489,0.00016447,0.0,0 STARLINK-3636,1 51995U 22025AR  23056.87709413  .00016447  00000-0  10489-2 0  9991,2 51995  53.2167 312.2859 0001748 101.1784 258.9405 15.08844203 53665,6917.868,95.437,540.942,538.523,0.0
51995.0,STARLINK-3636,PAYLOAD,2023-02-26 01:49:10,15.0885127,0.000142,53.2167,311.3943,97.5778,262.5376,0.0012453,0.00019593,0.0,0 STARLINK-3636,1 51995U 22025AR  23057.07581352  .00019593  00000-0  12453-2 0  9992,2 51995  53.2167 311.3943 0001420  97.5778 262.5376 15.08851270 55210,6917.846,95.437,540.693,538.729,0.0
51995.0,STARLINK-3636,PAYLOAD,2023-02-27 03:15:19,15.08874012,0.0001362,53.2153,306.6359,95.293,264.8217,0.00097226,0.00015234,0.0,0 STARLINK-3636,1 51995U 22025AR  23058.13564012  .00015234  00000-0  97226-3 0  9994,2 51995  53.2153 306.6359 0001362  95.2930 264.8217 15.08874012 55378,6917.776,95.435,540.584,538.699,0.0
51995.0,STARLINK-3636,PAYLOAD,2023-02-27 22:19:56,15.0886635,0.0002306,53.2153,303.0665,78.2164,281.9087,0.00063408,9.825e-05,0.0,0 STARLINK-3636,1 51995U 22025AR  23058.93051673  .00009825  00000-0  63408-3 0  9990,2 51995  53.2153 303.0665 0002306  78.2164 281.9087 15.08866350 53973,6917.8,95.436,541.26,538.07,0.0
